[{"OBJECT_NAME":"ASTROCAST-0403","OBJECT_ID":"2023-001DG","EPOCH":"2026-03-09T19:45:35.762976","MEAN_MOTION":15.28004949,"ECCENTRICITY":0.00047706,"INCLINATION":97.5604,"RA_OF_ASC_NODE":161.3228,"ARG_OF_PERICENTER":338.0704,"MEAN_ANOMALY":22.033,"EPHEMERIS_TYPE":0,"CLASSIFICATION_TYPE":"U","NORAD_CAT_ID":55111,"ELEMENT_SET_NO":999,"REV_AT_EPOCH":12937,"BSTAR":0.0005131719,"MEAN_MOTION_DOT":0.00013959,"MEAN_MOTION_DDOT":0},{"OBJECT_NAME":"STARLINK-35952","OBJECT_ID":"2025-265E","EPOCH":"2026-03-09T13:47:57.336288","MEAN_MOTION":15.27588666,"ECCENTRICITY":6.41e-5,"INCLINATION":43.0004,"RA_OF_ASC_NODE":278.7826,"ARG_OF_PERICENTER":301.9847,"MEAN_ANOMALY":58.0942,"EPHEMERIS_TYPE":0,"CLASSIFICATION_TYPE":"U","NORAD_CAT_ID":66520,"ELEMENT_SET_NO":999,"REV_AT_EPOCH":1709,"BSTAR":0.0010985,"MEAN_MOTION_DOT":0.00030098,"MEAN_MOTION_DDOT":0}]
